{
  "type": "FeatureCollection",
  "features": [
    {
      "type": "Feature",
      "properties": {
        "norad_id": 66597,
        "name": "STARLINK-35820",
        "group": "last-30-days",
        "lat": 36.30847355223892,
        "lon": -117.1781307406504,
        "alt_km": 439.26404394743713,
        "timestamp": "2025-12-26T05:31:11.215257+00:00",
        "meta_object_name": "STARLINK-35820",
        "meta_object_id": "2025-270K",
        "meta_epoch": "2025-12-25T16:33:22.358304",
        "meta_mean_motion": 15.40716379,
        "meta_eccentricity": 0.00019708,
        "meta_inclination": 43.0011,
        "meta_ra_of_asc_node": 117.9816,
        "meta_arg_of_pericenter": 279.5026,
        "meta_mean_anomaly": 80.5608,
        "meta_ephemeris_type": 0,
        "meta_classification_type": "U",
        "meta_norad_cat_id": 66597,
        "meta_element_set_no": 999,
        "meta_rev_at_epoch": 645,
        "meta_bstar": 0.0017144485,
        "meta_mean_motion_dot": 0.00072033,
        "meta_mean_motion_ddot": 0,
        "tle_line1": "1 66597U 25270K   25359.68984211  .00072033  00000+0  17144-2 0  9995",
        "tle_line2": "2 66597  43.0011 117.9816 0001970 279.5026  80.5608 15.40716379  6450"
      },
      "geometry": {
        "type": "Point",
        "coordinates": [
          -117.1781307406504,
          36.30847355223892
        ]
      }
    },
    {
      "type": "Feature",
      "properties": {
        "norad_id": 66598,
        "name": "STARLINK-35981",
        "group": "last-30-days",
        "lat": -17.974385230523385,
        "lon": -44.96975274872141,
        "alt_km": 445.2287672639213,
        "timestamp": "2025-12-26T05:31:11.215267+00:00",
        "meta_object_name": "STARLINK-35981",
        "meta_object_id": "2025-270L",
        "meta_epoch": "2025-12-25T14:37:26.403168",
        "meta_mean_motion": 15.4075353,
        "meta_eccentricity": 0.0001255,
        "meta_inclination": 42.9985,
        "meta_ra_of_asc_node": 118.2329,
        "meta_arg_of_pericenter": 277.5792,
        "meta_mean_anomaly": 82.4921,
        "meta_ephemeris_type": 0,
        "meta_classification_type": "U",
        "meta_norad_cat_id": 66598,
        "meta_element_set_no": 999,
        "meta_rev_at_epoch": 618,
        "meta_bstar": 0.0013375,
        "meta_mean_motion_dot": 0.00056078,
        "meta_mean_motion_ddot": 0,
        "tle_line1": "1 66598U 25270L   25359.60933337  .00056078  00000+0  13375-2 0  9994",
        "tle_line2": "2 66598  42.9985 118.2329 0001255 277.5792  82.4921 15.40753530  6185"
      },
      "geometry": {
        "type": "Point",
        "coordinates": [
          -44.96975274872141,
          -17.974385230523385
        ]
      }
    },
    {
      "type": "Feature",
      "properties": {
        "norad_id": 66599,
        "name": "STARLINK-35930",
        "group": "last-30-days",
        "lat": -11.224140042429623,
        "lon": 102.03042383216578,
        "alt_km": 444.857737138278,
        "timestamp": "2025-12-26T05:31:11.215277+00:00",
        "meta_object_name": "STARLINK-35930",
        "meta_object_id": "2025-270M",
        "meta_epoch": "2025-12-25T22:00:01.999584",
        "meta_mean_motion": 15.4067541,
        "meta_eccentricity": 0.00015028,
        "meta_inclination": 43.0003,
        "meta_ra_of_asc_node": 116.1317,
        "meta_arg_of_pericenter": 268.8972,
        "meta_mean_anomaly": 134.8019,
        "meta_ephemeris_type": 0,
        "meta_classification_type": "U",
        "meta_norad_cat_id": 66599,
        "meta_element_set_no": 999,
        "meta_rev_at_epoch": 602,
        "meta_bstar": 0.00072318641,
        "meta_mean_motion_dot": 0.0003,
        "meta_mean_motion_ddot": 0,
        "tle_line1": "1 66599U 25270M   25359.91668981  .00030000  00000+0  72319-3 0  9990",
        "tle_line2": "2 66599  43.0003 116.1317 0001502 268.8972 134.8019 15.40675410  6024"
      },
      "geometry": {
        "type": "Point",
        "coordinates": [
          102.03042383216578,
          -11.224140042429623
        ]
      }
    },
    {
      "type": "Feature",
      "properties": {
        "norad_id": 66600,
        "name": "STARLINK-35980",
        "group": "last-30-days",
        "lat": -41.52390044637031,
        "lon": 6.378208635041507,
        "alt_km": 447.42538410854286,
        "timestamp": "2025-12-26T05:31:11.215287+00:00",
        "meta_object_name": "STARLINK-35980",
        "meta_object_id": "2025-270N",
        "meta_epoch": "2025-12-25T17:31:15.223584",
        "meta_mean_motion": 15.4074017,
        "meta_eccentricity": 0.00012039,
        "meta_inclination": 43.0006,
        "meta_ra_of_asc_node": 117.4177,
        "meta_arg_of_pericenter": 6.8495,
        "meta_mean_anomaly": 353.2378,
        "meta_ephemeris_type": 0,
        "meta_classification_type": "U",
        "meta_norad_cat_id": 66600,
        "meta_element_set_no": 999,
        "meta_rev_at_epoch": 625,
        "meta_bstar": 0.0010972155,
        "meta_mean_motion_dot": 0.00045867,
        "meta_mean_motion_ddot": 0,
        "tle_line1": "1 66600U 25270N   25359.73003731  .00045867  00000+0  10972-2 0  9992",
        "tle_line2": "2 66600  43.0006 117.4177 0001203   6.8495 353.2378 15.40740170  6252"
      },
      "geometry": {
        "type": "Point",
        "coordinates": [
          6.378208635041507,
          -41.52390044637031
        ]
      }
    },
    {
      "type": "Feature",
      "properties": {
        "norad_id": 66601,
        "name": "STARLINK-35978",
        "group": "last-30-days",
        "lat": 15.42336336761371,
        "lon": -82.44368408976753,
        "alt_km": 442.05717528338664,
        "timestamp": "2025-12-26T05:31:11.215297+00:00",
        "meta_object_name": "STARLINK-35978",
        "meta_object_id": "2025-270P",
        "meta_epoch": "2025-12-25T14:50:20.458176",
        "meta_mean_motion": 15.40695695,
        "meta_eccentricity": 0.0001748,
        "meta_inclination": 43.0008,
        "meta_ra_of_asc_node": 118.3029,
        "meta_arg_of_pericenter": 278.7511,
        "meta_mean_anomaly": 81.3147,
        "meta_ephemeris_type": 0,
        "meta_classification_type": "U",
        "meta_norad_cat_id": 66601,
        "meta_element_set_no": 999,
        "meta_rev_at_epoch": 617,
        "meta_bstar": 0.0016425,
        "meta_mean_motion_dot": 0.00068921,
        "meta_mean_motion_ddot": 0,
        "tle_line1": "1 66601U 25270P   25359.61829234  .00068921  00000+0  16425-2 0  9999",
        "tle_line2": "2 66601  43.0008 118.3029 0001748 278.7511  81.3147 15.40695695  6179"
      },
      "geometry": {
        "type": "Point",
        "coordinates": [
          -82.44368408976753,
          15.42336336761371
        ]
      }
    },
    {
      "type": "Feature",
      "properties": {
        "norad_id": 66602,
        "name": "STARLINK-36050",
        "group": "last-30-days",
        "lat": 42.5041054940051,
        "lon": -165.48712131660406,
        "alt_km": 438.21580900411027,
        "timestamp": "2025-12-26T05:31:11.215307+00:00",
        "meta_object_name": "STARLINK-36050",
        "meta_object_id": "2025-270Q",
        "meta_epoch": "2025-12-25T16:43:02.809920",
        "meta_mean_motion": 15.40700977,
        "meta_eccentricity": 0.0001645,
        "meta_inclination": 43.0015,
        "meta_ra_of_asc_node": 118.0318,
        "meta_arg_of_pericenter": 265.3837,
        "meta_mean_anomaly": 94.6831,
        "meta_ephemeris_type": 0,
        "meta_classification_type": "U",
        "meta_norad_cat_id": 66602,
        "meta_element_set_no": 999,
        "meta_rev_at_epoch": 624,
        "meta_bstar": 0.0014070321,
        "meta_mean_motion_dot": 0.00058929,
        "meta_mean_motion_ddot": 0,
        "tle_line1": "1 66602U 25270Q   25359.69656030  .00058929  00000+0  14070-2 0  9991",
        "tle_line2": "2 66602  43.0015 118.0318 0001645 265.3837  94.6831 15.40700977  6240"
      },
      "geometry": {
        "type": "Point",
        "coordinates": [
          -165.48712131660406,
          42.5041054940051
        ]
      }
    },
    {
      "type": "Feature",
      "properties": {
        "norad_id": 66603,
        "name": "STARLINK-36048",
        "group": "last-30-days",
        "lat": -9.707260033391137,
        "lon": -54.73567206108566,
        "alt_km": 444.7732695449022,
        "timestamp": "2025-12-26T05:31:11.215320+00:00",
        "meta_object_name": "STARLINK-36048",
        "meta_object_id": "2025-270R",
        "meta_epoch": "2025-12-25T17:47:22.397280",
        "meta_mean_motion": 15.40700438,
        "meta_eccentricity": 0.0001458,
        "meta_inclination": 42.9995,
        "meta_ra_of_asc_node": 117.5035,
        "meta_arg_of_pericenter": 277.8651,
        "meta_mean_anomaly": 82.204,
        "meta_ephemeris_type": 0,
        "meta_classification_type": "U",
        "meta_norad_cat_id": 66603,
        "meta_element_set_no": 999,
        "meta_rev_at_epoch": 625,
        "meta_bstar": 0.0012828673,
        "meta_mean_motion_dot": 0.00053664,
        "meta_mean_motion_ddot": 0,
        "tle_line1": "1 66603U 25270R   25359.74123145  .00053664  00000+0  12829-2 0  9995",
        "tle_line2": "2 66603  42.9995 117.5035 0001458 277.8651  82.2040 15.40700438  6258"
      },
      "geometry": {
        "type": "Point",
        "coordinates": [
          -54.73567206108566,
          -9.707260033391137
        ]
      }
    }
  ]
}